{"type": "FeatureCollection", "features": [ {"type": "Feature", "properties": {"norad_id": 43010, "name": "FENGYUN 3D", "group": "weather", "lat": 13.007910853032008, "lon": -51.405450344228434, "alt_km": 828.060753654273, "timestamp": "2025-12-10T09:57:44.347889+00:00", "meta": {"OBJECT_NAME": "FENGYUN 3D", "OBJECT_ID": "2017-072A", "EPOCH": "2025-12-10T04:49:33.784608", "MEAN_MOTION": 14.19682172, "ECCENTRICITY": 7.89e-05, "INCLINATION": 98.9892, "RA_OF_ASC_NODE": 310.473, "ARG_OF_PERICENTER": 189.276, "MEAN_ANOMALY": 170.8401, "EPHEMERIS_TYPE": 0, "CLASSIFICATION_TYPE": "U", "NORAD_CAT_ID": 43010, "ELEMENT_SET_NO": 999, "REV_AT_EPOCH": 41817, "BSTAR": 9.244e-05, "MEAN_MOTION_DOT": 1.49e-06, "MEAN_MOTION_DDOT": 0}, "tle": {"line1": "1 43010U 17072A   25344.20108547  .00000149  00000+0  92440-4 0  9996", "line2": "2 43010  98.9892 310.4730 0000789 189.2760 170.8401 14.19682172418173"}}, "geometry": {"type": "Point", "coordinates": [-51.405450344228434, 13.007910853032008]}}, {"type": "Feature", "properties": {"norad_id": 43013, "name": "NOAA 20 (JPSS-1)", "group": "weather", "lat": 12.717801283749557, "lon": 102.7314452315798, "alt_km": 827.7268708899283, "timestamp": "2025-12-10T09:57:44.347900+00:00", "meta": {"OBJECT_NAME": "NOAA 20 (JPSS-1)", "OBJECT_ID": "2017-073A", "EPOCH": "2025-12-10T02:24:41.917824", "MEAN_MOTION": 14.1952455, "ECCENTRICITY": 0.0002144, "INCLINATION": 98.7596, "RA_OF_ASC_NODE": 280.4262, "ARG_OF_PERICENTER": 91.0486, "MEAN_ANOMALY": 269.0936, "EPHEMERIS_TYPE": 0, "CLASSIFICATION_TYPE": "U", "NORAD_CAT_ID": 43013, "ELEMENT_SET_NO": 999, "REV_AT_EPOCH": 41764, "BSTAR": 9.863e-05, "MEAN_MOTION_DOT": 1.64e-06, "MEAN_MOTION_DDOT": 0}, "tle": {"line1": "1 43013U 17073A   25344.10048516  .00000164  00000+0  98630-4 0  9992", "line2": "2 43013  98.7596 280.4262 0002144  91.0486 269.0936 14.19524550417643"}}, "geometry": {"type": "Point", "coordinates": [102.7314452315798, 12.717801283749557]}}, {"type": "Feature", "properties": {"norad_id": 43226, "name": "GOES 17", "group": "weather", "lat": 0.35601638575685257, "lon": 139.30021128142604, "alt_km": 35796.474746610074, "timestamp": "2025-12-10T09:57:44.347913+00:00", "meta": {"OBJECT_NAME": "GOES 17", "OBJECT_ID": "2018-022A", "EPOCH": "2025-12-10T04:23:38.620032", "MEAN_MOTION": 1.00271635, "ECCENTRICITY": 0.0003375, "INCLINATION": 0.4535, "RA_OF_ASC_NODE": 89.1426, "ARG_OF_PERICENTER": 186.9356, "MEAN_ANOMALY": 139.4998, "EPHEMERIS_TYPE": 0, "CLASSIFICATION_TYPE": "U", "NORAD_CAT_ID": 43226, "ELEMENT_SET_NO": 999, "REV_AT_EPOCH": 2852, "BSTAR": 0, "MEAN_MOTION_DOT": -1.79e-06, "MEAN_MOTION_DDOT": 0}, "tle": {"line1": "1 43226U 18022A   25344.18308588 -.00000179  00000+0  00000+0 0  9995", "line2": "2 43226   0.4535  89.1426 0003375 186.9356 139.4998  1.00271635 28527"}}, "geometry": {"type": "Point", "coordinates": [139.30021128142604, 0.35601638575685257]}}, {"type": "Feature", "properties": {"norad_id": 43491, "name": "FENGYUN 2H", "group": "weather", "lat": -1.8690074596670763, "lon": -51.812139333940294, "alt_km": 35780.61208752681, "timestamp": "2025-12-10T09:57:44.347926+00:00", "meta": {"OBJECT_NAME": "FENGYUN 2H", "OBJECT_ID": "2018-050A", "EPOCH": "2025-12-09T20:47:51.878688", "MEAN_MOTION": 1.00271041, "ECCENTRICITY": 0.0002944, "INCLINATION": 2.5434, "RA_OF_ASC_NODE": 81.3538, "ARG_OF_PERICENTER": 165.2045, "MEAN_ANOMALY": 223.6196, "EPHEMERIS_TYPE": 0, "CLASSIFICATION_TYPE": "U", "NORAD_CAT_ID": 43491, "ELEMENT_SET_NO": 999, "REV_AT_EPOCH": 2754, "BSTAR": 0, "MEAN_MOTION_DOT": -1.27e-06, "MEAN_MOTION_DDOT": 0}, "tle": {"line1": "1 43491U 18050A   25343.86657267 -.00000127  00000+0  00000+0 0  9998", "line2": "2 43491   2.5434  81.3538 0002944 165.2045 223.6196  1.00271041 27544"}}, "geometry": {"type": "Point", "coordinates": [-51.812139333940294, -1.8690074596670763]}}, {"type": "Feature", "properties": {"norad_id": 43689, "name": "METOP-C", "group": "weather", "lat": -66.8188600372442, "lon": 63.15475004284241, "alt_km": 827.8957772613794, "timestamp": "2025-12-10T09:57:44.347939+00:00", "meta": {"OBJECT_NAME": "METOP-C", "OBJECT_ID": "2018-087A", "EPOCH": "2025-12-10T03:31:35.551200", "MEAN_MOTION": 14.21510271, "ECCENTRICITY": 0.0001449, "INCLINATION": 98.6933, "RA_OF_ASC_NODE": 41.9563, "ARG_OF_PERICENTER": 46.7548, "MEAN_ANOMALY": 313.375, "EPHEMERIS_TYPE": 0, "CLASSIFICATION_TYPE": "U", "NORAD_CAT_ID": 43689, "ELEMENT_SET_NO": 999, "REV_AT_EPOCH": 36797, "BSTAR": 0.00011893, "MEAN_MOTION_DOT": 2.17e-06, "MEAN_MOTION_DDOT": 0}, "tle": {"line1": "1 43689U 18087A   25344.14693925  .00000217  00000+0  11893-3 0  9995", "line2": "2 43689  98.6933  41.9563 0001449  46.7548 313.3750 14.21510271367978"}}, "geometry": {"type": "Point", "coordinates": [63.15475004284241, -66.8188600372442]}}, {"type": "Feature", "properties": {"norad_id": 43823, "name": "GEO-KOMPSAT-2A", "group": "weather", "lat": -0.02324037434951234, "lon": -2.916441151899461, "alt_km": 35787.22920946168, "timestamp": "2025-12-10T09:57:44.347960+00:00", "meta": {"OBJECT_NAME": "GEO-KOMPSAT-2A", "OBJECT_ID": "2018-100A", "EPOCH": "2025-12-09T23:29:38.510016", "MEAN_MOTION": 1.00269688, "ECCENTRICITY": 1.17e-05, "INCLINATION": 0.0417, "RA_OF_ASC_NODE": 144.825, "ARG_OF_PERICENTER": 34.8694, "MEAN_ANOMALY": 19.9414, "EPHEMERIS_TYPE": 0, "CLASSIFICATION_TYPE": "U", "NORAD_CAT_ID": 43823, "ELEMENT_SET_NO": 999, "REV_AT_EPOCH": 2573, "BSTAR": 0, "MEAN_MOTION_DOT": -3.41e-06, "MEAN_MOTION_DDOT": 0}, "tle": {"line1": "1 43823U 18100A   25343.97891794 -.00000341  00000+0  00000+0 0  9998", "line2": "2 43823   0.0417 144.8250 0000117  34.8694  19.9414  1.00269688 25736"}}, "geometry": {"type": "Point", "coordinates": [-2.916441151899461, -0.02324037434951234]}}, {"type": "Feature", "properties": {"norad_id": 44387, "name": "METEOR-M2 2", "group": "weather", "lat": -17.674968180241926, "lon": -33.02365776099346, "alt_km": 816.587700560639, "timestamp": "2025-12-10T09:57:44.347978+00:00", "meta": {"OBJECT_NAME": "METEOR-M2 2", "OBJECT_ID": "2019-038A", "EPOCH": "2025-12-10T04:59:17.427840", "MEAN_MOTION": 14.24290685, "ECCENTRICITY": 0.0001142, "INCLINATION": 98.8971, "RA_OF_ASC_NODE": 323.9054, "ARG_OF_PERICENTER": 151.762, "MEAN_ANOMALY": 208.362, "EPHEMERIS_TYPE": 0, "CLASSIFICATION_TYPE": "U", "NORAD_CAT_ID": 44387, "ELEMENT_SET_NO": 999, "REV_AT_EPOCH": 33439, "BSTAR": 0.0002682, "MEAN_MOTION_DOT": 5.73e-06, "MEAN_MOTION_DDOT": 0}, "tle": {"line1": "1 44387U 19038A   25344.20784060  .00000573  00000+0  26820-3 0  9997", "line2": "2 44387  98.8971 323.9054 0001142 151.7620 208.3620 14.24290685334390"}}, "geometry": {"type": "Point", "coordinates": [-33.02365776099346, -17.674968180241926]}}, {"type": "Feature", "properties": {"norad_id": 47719, "name": "ARKTIKA-M 1", "group": "weather", "lat": 57.93588542598343, "lon": -149.4357234136745, "alt_km": 33584.98702413039, "timestamp": "2025-12-10T09:57:44.347992+00:00", "meta": {"OBJECT_NAME": "ARKTIKA-M 1", "OBJECT_ID": "2021-016A", "EPOCH": "2025-12-09T14:03:23.859648", "MEAN_MOTION": 2.00631311, "ECCENTRICITY": 0.7202538, "INCLINATION": 63.1769, "RA_OF_ASC_NODE": 84.4506, "ARG_OF_PERICENTER": 269.1116, "MEAN_ANOMALY": 15.6235, "EPHEMERIS_TYPE": 0, "CLASSIFICATION_TYPE": "U", "NORAD_CAT_ID": 47719, "ELEMENT_SET_NO": 999, "REV_AT_EPOCH": 3498, "BSTAR": 0, "MEAN_MOTION_DOT": -6.1e-07, "MEAN_MOTION_DDOT": 0}, "tle": {"line1": "1 47719U 21016A   25343.58569282 -.00000061  00000+0  00000+0 0  9996", "line2": "2 47719  63.1769  84.4506 7202538 269.1116  15.6235  2.00631311 34985"}}, "geometry": {"type": "Point", "coordinates": [-149.4357234136745, 57.93588542598343]}}, {"type": "Feature", "properties": {"norad_id": 49008, "name": "FENGYUN 3E", "group": "weather", "lat": -21.439567796033625, "lon": -11.57019269177723, "alt_km": 830.7379386269058, "timestamp": "2025-12-10T09:57:44.348011+00:00", "meta": {"OBJECT_NAME": "FENGYUN 3E", "OBJECT_ID": "2021-062A", "EPOCH": "2025-12-10T03:17:57.686208", "MEAN_MOTION": 14.19879674, "ECCENTRICITY": 5.92e-05, "INCLINATION": 98.7474, "RA_OF_ASC_NODE": 344.6892, "ARG_OF_PERICENTER": 287.044, "MEAN_ANOMALY": 73.0671, "EPHEMERIS_TYPE": 0, "CLASSIFICATION_TYPE": "U", "NORAD_CAT_ID": 49008, "ELEMENT_SET_NO": 999, "REV_AT_EPOCH": 22975, "BSTAR": 0.00013971, "MEAN_MOTION_DOT": 2.52e-06, "MEAN_MOTION_DDOT": 0}, "tle": {"line1": "1 49008U 21062A   25344.13747322  .00000252  00000+0  13971-3 0  9991", "line2": "2 49008  98.7474 344.6892 0000592 287.0440  73.0671 14.19879674229754"}}, "geometry": {"type": "Point", "coordinates": [-11.57019269177723, -21.439567796033625]}}, {"type": "Feature", "properties": {"norad_id": 51850, "name": "GOES 18", "group": "weather", "lat": 0.0060102582518740556, "lon": 91.82342336175132, "alt_km": 35788.94633989074, "timestamp": "2025-12-10T09:57:44.348024+00:00", "meta": {"OBJECT_NAME": "GOES 18", "OBJECT_ID": "2022-021A", "EPOCH": "2025-12-10T05:14:29.455008", "MEAN_MOTION": 1.00270999, "ECCENTRICITY": 6.94e-05, "INCLINATION": 0.0313, "RA_OF_ASC_NODE": 189.68, "ARG_OF_PERICENTER": 107.0329, "MEAN_ANOMALY": 84.105, "EPHEMERIS_TYPE": 0, "CLASSIFICATION_TYPE": "U", "NORAD_CAT_ID": 51850, "ELEMENT_SET_NO": 999, "REV_AT_EPOCH": 469, "BSTAR": 0, "MEAN_MOTION_DOT": 1e-06, "MEAN_MOTION_DDOT": 0}, "tle": {"line1": "1 51850U 22021A   25344.21839647  .00000100  00000+0  00000+0 0  9993", "line2": "2 51850   0.0313 189.6800 0000694 107.0329  84.1050  1.00270999  4695"}}, "geometry": {"type": "Point", "coordinates": [91.82342336175132, 0.0060102582518740556]}}]}